STARLINK-5609           
1 55348U 23013T   26077.83335648  .00059722  00000+0  34728-2 0  9996
2 55348  42.9998 250.4074 0000824 314.1079 192.9756 15.11260125  5827
STARLINK-5666           
1 55349U 23013U   26077.83335648  .00060437  00000+0  34466-2 0  9991
2 55349  42.9999 250.3183 0000668 291.9901 252.3709 15.11956455  5828
STARLINK-5668           
1 55350U 23013V   26077.83335648  .00059293  00000+0  34693-2 0  9993
2 55350  43.0003 250.3422 0000674 310.9580 223.4976 15.11038828  5769
STARLINK-5659           
1 55351U 23013W   26077.83335648  .00058425  00000+0  35542-2 0  9994
2 55351  42.9997 250.2651 0000374 298.7283 266.1761 15.09634176  5719
STARLINK-5547           
1 55352U 23013X   26077.76411159  .00002554  00000+0  10486-3 0  9992
2 55352  43.0011 248.5393 0001324 272.0477  88.0222 15.26742513173104
STARLINK-5608           
1 55353U 23013Y   26077.83335648  .00046223  00000+0  17215-2 0  9996
2 55353  43.0003 248.0583 0001539 271.2794 148.0046 15.26750769  5829
STARLINK-5649           
1 55354U 23013Z   26077.83335648  .00060030  00000+0  34543-2 0  9992
2 55354  42.9992 250.2087 0000829 283.9491 306.1446 15.11635715  5765
STARLINK-5647           
1 55355U 23013AA  26077.83335648  .00058134  00000+0  35367-2 0  9990
2 55355  42.9999 250.1602 0001399 218.2425  25.5863 15.09634978  5713
STARLINK-5651           
1 55357U 23013AC  26077.83335648  .00056883  00000+0  35632-2 0  9996
2 55357  43.0001 250.2414 0000632 244.9571 329.5509 15.08577336  5717
STARLINK-5622           
1 55358U 23013AD  26077.83335648  .00060237  00000+0  35793-2 0  9993
2 55358  42.9998 250.1791 0001401 228.5142  13.7233 15.10474818  5760
STARLINK-5641           
1 55359U 23013AE  26077.83335648  .00060496  00000+0  37976-2 0  9996
2 55359  42.9999 250.1910 0000926 293.2577 301.6001 15.08473092  5826
STARLINK-5664           
1 55360U 23013AF  26077.78204988  .00001684  00000+0  13973-3 0  9990
2 55360  43.0011 263.3542 0001197 278.0172  82.0534 15.02532998172938
STARLINK-5665           
1 55361U 23013AG  26077.83335648  .00115227  00000+0  54285-2 0  9994
2 55361  42.9996 236.6214 0001168 320.5129 155.6676 15.18367079  5719
STARLINK-5574           
1 55362U 23013AH  26077.83335648  .00119976  00000+0  52683-2 0  9990
2 55362  42.9998 236.3573 0001625 264.8239 323.4406 15.20764421  5820
STARLINK-5627           
1 55364U 23013AK  26077.83335648  .00060700  00000+0  38098-2 0  9996
2 55364  42.9999 250.1594 0000911 297.6600 309.9494 15.08477366  5824
STARLINK-5639           
1 55365U 23013AL  26077.88848727  .00000799  00000+0  74206-4 0  9994
2 55365  43.0034 263.2965 0001176 256.1847 103.8865 15.02536579172948
