[{"OBJECT_NAME":"STARLINK-5609","OBJECT_ID":"2023-013T","EPOCH":"2026-03-18T20:00:01.999872","MEAN_MOTION":15.11260125,"ECCENTRICITY":8.245e-5,"INCLINATION":42.9998,"RA_OF_ASC_NODE":250.4074,"ARG_OF_PERICENTER":314.1079,"MEAN_ANOMALY":192.9756,"EPHEMERIS_TYPE":0,"CLASSIFICATION_TYPE":"U","NORAD_CAT_ID":55348,"ELEMENT_SET_NO":999,"REV_AT_EPOCH":582,"BSTAR":0.0034728146,"MEAN_MOTION_DOT":0.00059722,"MEAN_MOTION_DDOT":0},{"OBJECT_NAME":"STARLINK-5666","OBJECT_ID":"2023-013U","EPOCH":"2026-03-18T20:00:01.999872","MEAN_MOTION":15.11956455,"ECCENTRICITY":6.685e-5,"INCLINATION":42.9999,"RA_OF_ASC_NODE":250.3183,"ARG_OF_PERICENTER":291.9901,"MEAN_ANOMALY":252.3709,"EPHEMERIS_TYPE":0,"CLASSIFICATION_TYPE":"U","NORAD_CAT_ID":55349,"ELEMENT_SET_NO":999,"REV_AT_EPOCH":582,"BSTAR":0.0034465892,"MEAN_MOTION_DOT":0.00060437,"MEAN_MOTION_DDOT":0},{"OBJECT_NAME":"STARLINK-5668","OBJECT_ID":"2023-013V","EPOCH":"2026-03-18T20:00:01.999872","MEAN_MOTION":15.11038828,"ECCENTRICITY":6.74e-5,"INCLINATION":43.0003,"RA_OF_ASC_NODE":250.3422,"ARG_OF_PERICENTER":310.958,"MEAN_ANOMALY":223.4976,"EPHEMERIS_TYPE":0,"CLASSIFICATION_TYPE":"U","NORAD_CAT_ID":55350,"ELEMENT_SET_NO":999,"REV_AT_EPOCH":576,"BSTAR":0.0034693461,"MEAN_MOTION_DOT":0.00059293,"MEAN_MOTION_DDOT":0},{"OBJECT_NAME":"STARLINK-5659","OBJECT_ID":"2023-013W","EPOCH":"2026-03-18T20:00:01.999872","MEAN_MOTION":15.09634176,"ECCENTRICITY":3.744e-5,"INCLINATION":42.9997,"RA_OF_ASC_NODE":250.2651,"ARG_OF_PERICENTER":298.7283,"MEAN_ANOMALY":266.1761,"EPHEMERIS_TYPE":0,"CLASSIFICATION_TYPE":"U","NORAD_CAT_ID":55351,"ELEMENT_SET_NO":999,"REV_AT_EPOCH":571,"BSTAR":0.0035542258,"MEAN_MOTION_DOT":0.00058425,"MEAN_MOTION_DDOT":0},{"OBJECT_NAME":"STARLINK-5547","OBJECT_ID":"2023-013X","EPOCH":"2026-03-18T18:20:19.241376","MEAN_MOTION":15.26742513,"ECCENTRICITY":0.00013242,"INCLINATION":43.0011,"RA_OF_ASC_NODE":248.5393,"ARG_OF_PERICENTER":272.0477,"MEAN_ANOMALY":88.0222,"EPHEMERIS_TYPE":0,"CLASSIFICATION_TYPE":"U","NORAD_CAT_ID":55352,"ELEMENT_SET_NO":999,"REV_AT_EPOCH":17310,"BSTAR":0.00010485984,"MEAN_MOTION_DOT":2.554e-5,"MEAN_MOTION_DDOT":0},{"OBJECT_NAME":"STARLINK-5608","OBJECT_ID":"2023-013Y","EPOCH":"2026-03-18T20:00:01.999872","MEAN_MOTION":15.26750769,"ECCENTRICITY":0.00015396,"INCLINATION":43.0003,"RA_OF_ASC_NODE":248.0583,"ARG_OF_PERICENTER":271.2794,"MEAN_ANOMALY":148.0046,"EPHEMERIS_TYPE":0,"CLASSIFICATION_TYPE":"U","NORAD_CAT_ID":55353,"ELEMENT_SET_NO":999,"REV_AT_EPOCH":582,"BSTAR":0.0017215301,"MEAN_MOTION_DOT":0.00046223,"MEAN_MOTION_DDOT":0},{"OBJECT_NAME":"STARLINK-5649","OBJECT_ID":"2023-013Z","EPOCH":"2026-03-18T20:00:01.999872","MEAN_MOTION":15.11635715,"ECCENTRICITY":8.29e-5,"INCLINATION":42.9992,"RA_OF_ASC_NODE":250.2087,"ARG_OF_PERICENTER":283.9491,"MEAN_ANOMALY":306.1446,"EPHEMERIS_TYPE":0,"CLASSIFICATION_TYPE":"U","NORAD_CAT_ID":55354,"ELEMENT_SET_NO":999,"REV_AT_EPOCH":576,"BSTAR":0.0034543372,"MEAN_MOTION_DOT":0.0006003,"MEAN_MOTION_DDOT":0},{"OBJECT_NAME":"STARLINK-5647","OBJECT_ID":"2023-013AA","EPOCH":"2026-03-18T20:00:01.999872","MEAN_MOTION":15.09634978,"ECCENTRICITY":0.00013997,"INCLINATION":42.9999,"RA_OF_ASC_NODE":250.1602,"ARG_OF_PERICENTER":218.2425,"MEAN_ANOMALY":25.5863,"EPHEMERIS_TYPE":0,"CLASSIFICATION_TYPE":"U","NORAD_CAT_ID":55355,"ELEMENT_SET_NO":999,"REV_AT_EPOCH":571,"BSTAR":0.0035366645,"MEAN_MOTION_DOT":0.00058134,"MEAN_MOTION_DDOT":0},{"OBJECT_NAME":"STARLINK-5651","OBJECT_ID":"2023-013AC","EPOCH":"2026-03-18T20:00:01.999872","MEAN_MOTION":15.08577336,"ECCENTRICITY":6.321e-5,"INCLINATION":43.0001,"RA_OF_ASC_NODE":250.2414,"ARG_OF_PERICENTER":244.9571,"MEAN_ANOMALY":329.5509,"EPHEMERIS_TYPE":0,"CLASSIFICATION_TYPE":"U","NORAD_CAT_ID":55357,"ELEMENT_SET_NO":999,"REV_AT_EPOCH":571,"BSTAR":0.0035632237,"MEAN_MOTION_DOT":0.00056883,"MEAN_MOTION_DDOT":0},{"OBJECT_NAME":"STARLINK-5622","OBJECT_ID":"2023-013AD","EPOCH":"2026-03-18T20:00:01.999872","MEAN_MOTION":15.10474818,"ECCENTRICITY":0.00014017,"INCLINATION":42.9998,"RA_OF_ASC_NODE":250.1791,"ARG_OF_PERICENTER":228.5142,"MEAN_ANOMALY":13.7233,"EPHEMERIS_TYPE":0,"CLASSIFICATION_TYPE":"U","NORAD_CAT_ID":55358,"ELEMENT_SET_NO":999,"REV_AT_EPOCH":576,"BSTAR":0.0035792581,"MEAN_MOTION_DOT":0.00060237,"MEAN_MOTION_DDOT":0},{"OBJECT_NAME":"STARLINK-5641","OBJECT_ID":"2023-013AE","EPOCH":"2026-03-18T20:00:01.999872","MEAN_MOTION":15.08473092,"ECCENTRICITY":9.266e-5,"INCLINATION":42.9999,"RA_OF_ASC_NODE":250.191,"ARG_OF_PERICENTER":293.2577,"MEAN_ANOMALY":301.6001,"EPHEMERIS_TYPE":0,"CLASSIFICATION_TYPE":"U","NORAD_CAT_ID":55359,"ELEMENT_SET_NO":999,"REV_AT_EPOCH":582,"BSTAR":0.0037975509,"MEAN_MOTION_DOT":0.00060496,"MEAN_MOTION_DDOT":0},{"OBJECT_NAME":"STARLINK-5664","OBJECT_ID":"2023-013AF","EPOCH":"2026-03-18T18:46:09.109632","MEAN_MOTION":15.02532998,"ECCENTRICITY":0.00011978,"INCLINATION":43.0011,"RA_OF_ASC_NODE":263.3542,"ARG_OF_PERICENTER":278.0172,"MEAN_ANOMALY":82.0534,"EPHEMERIS_TYPE":0,"CLASSIFICATION_TYPE":"U","NORAD_CAT_ID":55360,"ELEMENT_SET_NO":999,"REV_AT_EPOCH":17293,"BSTAR":0.00013972683,"MEAN_MOTION_DOT":1.684e-5,"MEAN_MOTION_DDOT":0},{"OBJECT_NAME":"STARLINK-5665","OBJECT_ID":"2023-013AG","EPOCH":"2026-03-18T20:00:01.999872","MEAN_MOTION":15.18367079,"ECCENTRICITY":0.00011682,"INCLINATION":42.9996,"RA_OF_ASC_NODE":236.6214,"ARG_OF_PERICENTER":320.5129,"MEAN_ANOMALY":155.6676,"EPHEMERIS_TYPE":0,"CLASSIFICATION_TYPE":"U","NORAD_CAT_ID":55361,"ELEMENT_SET_NO":999,"REV_AT_EPOCH":571,"BSTAR":0.0054285078,"MEAN_MOTION_DOT":0.00115227,"MEAN_MOTION_DDOT":0},{"OBJECT_NAME":"STARLINK-5574","OBJECT_ID":"2023-013AH","EPOCH":"2026-03-18T20:00:01.999872","MEAN_MOTION":15.20764421,"ECCENTRICITY":0.00016259,"INCLINATION":42.9998,"RA_OF_ASC_NODE":236.3573,"ARG_OF_PERICENTER":264.8239,"MEAN_ANOMALY":323.4406,"EPHEMERIS_TYPE":0,"CLASSIFICATION_TYPE":"U","NORAD_CAT_ID":55362,"ELEMENT_SET_NO":999,"REV_AT_EPOCH":582,"BSTAR":0.0052682519,"MEAN_MOTION_DOT":0.00119976,"MEAN_MOTION_DDOT":0},{"OBJECT_NAME":"STARLINK-5627","OBJECT_ID":"2023-013AK","EPOCH":"2026-03-18T20:00:01.999872","MEAN_MOTION":15.08477366,"ECCENTRICITY":9.116e-5,"INCLINATION":42.9999,"RA_OF_ASC_NODE":250.1594,"ARG_OF_PERICENTER":297.66,"MEAN_ANOMALY":309.9494,"EPHEMERIS_TYPE":0,"CLASSIFICATION_TYPE":"U","NORAD_CAT_ID":55364,"ELEMENT_SET_NO":999,"REV_AT_EPOCH":582,"BSTAR":0.0038097798,"MEAN_MOTION_DOT":0.000607,"MEAN_MOTION_DDOT":0},{"OBJECT_NAME":"STARLINK-5639","OBJECT_ID":"2023-013AL","EPOCH":"2026-03-18T21:19:25.300128","MEAN_MOTION":15.02536579,"ECCENTRICITY":0.00011767,"INCLINATION":43.0034,"RA_OF_ASC_NODE":263.2965,"ARG_OF_PERICENTER":256.1847,"MEAN_ANOMALY":103.8865,"EPHEMERIS_TYPE":0,"CLASSIFICATION_TYPE":"U","NORAD_CAT_ID":55365,"ELEMENT_SET_NO":999,"REV_AT_EPOCH":17294,"BSTAR":7.4205707e-5,"MEAN_MOTION_DOT":7.99e-6,"MEAN_MOTION_DDOT":0}]
